OBJECT_NAME,OBJECT_ID,EPOCH,MEAN_MOTION,ECCENTRICITY,INCLINATION,RA_OF_ASC_NODE,ARG_OF_PERICENTER,MEAN_ANOMALY,EPHEMERIS_TYPE,CLASSIFICATION_TYPE,NORAD_CAT_ID,ELEMENT_SET_NO,REV_AT_EPOCH,BSTAR,MEAN_MOTION_DOT,MEAN_MOTION_DDOT
FLOCK 4BE-9,2024-149AY,2026-07-18T04:32:12.190272,15.41680268,.00039418,97.3784,283.7797,162.4982,197.6402,0,U,60514,999,10709,.30020288E-3,.12582E-3,0
FLOCK 4BE-6,2024-149BA,2026-07-18T04:16:25.997088,15.40367618,.0004594,97.3782,283.0666,164.3162,195.8227,0,U,60516,999,10704,.20070067E-3,.8022E-4,0
FLOCK 4BE-14,2024-149BB,2026-07-18T03:10:06.740544,15.41913504,.00056061,97.3687,283.1867,167.3280,192.8109,0,U,60517,999,10709,.22782371E-3,.9602E-4,0
FLOCK 4BE-1,2024-149BC,2026-07-18T04:19:17.212512,15.43576103,.0005289,97.3771,284.6255,166.5273,193.6117,0,U,60518,999,10715,.22477962E-3,.10017E-3,0
FLOCK 4BE-28,2024-149BD,2026-07-18T03:28:47.575776,15.46448306,.00054199,97.3739,285.4169,167.0879,193.0510,0,U,60519,999,10722,.52714979E-3,.26086E-3,0
IPERDRONE.0,2024-149BE,2026-07-17T18:59:12.488928,15.71386008,.00039303,97.3766,293.6222,161.8445,198.2959,0,U,60520,999,10771,.47052876E-3,.60022E-3,0
TRANSPORTER-11 OBJECT BF,2024-149BF,2026-07-17T23:18:05.055840,16.17178955,.00115336,97.3781,297.8615,254.3483,105.6532,0,U,60521,999,10799,.90066164E-3,.1386109E-1,.2407442E-5
CONNECTA IOT-2,2024-149BG,2026-07-18T04:03:25.474176,15.24208554,.00058328,97.3830,276.8484,201.0612,159.0386,0,U,60522,999,10661,.95792908E-4,.2264E-4,0
CONNECTA IOT-4,2024-149BJ,2026-07-17T22:51:24.066432,15.43236121,.00062199,97.3790,283.7098,166.1070,194.0350,0,U,60524,999,10707,.26159975E-3,.11543E-3,0
ORESAT0.5,2024-149BK,2026-07-18T04:38:16.122624,15.46181292,.00064165,97.3718,285.6926,155.0031,205.1530,0,U,60525,999,10726,.24375829E-3,.11885E-3,0
DEIMOS,2024-149BL,2026-07-18T04:17:03.757344,15.45261274,.00062908,97.3775,285.8010,160.5107,199.6384,0,U,60526,999,10723,.23068101E-3,.10891E-3,0
CUAVA-2,2024-149BM,2026-07-18T03:33:59.010624,15.36775184,.00072222,97.3715,280.7336,169.5748,190.5647,0,U,60527,999,10692,.1840553E-3,.6536E-4,0
ERNST,2024-149BN,2026-07-18T04:07:42.672288,15.39940943,.00064683,97.3799,283.1402,169.2987,190.8398,0,U,60528,999,10704,.18804791E-3,.7407E-4,0
TORO,2024-149BQ,2026-07-18T03:09:18.335808,14.96520389,.00011802,97.6771,273.2216,106.7423,253.3928,0,U,60530,999,10458,.64305914E-4,.674E-5,0
HYPSO-2,2024-149BR,2026-07-18T04:14:26.404800,14.98941565,.00016207,97.6837,274.9881,96.4475,263.6932,0,U,60531,999,10469,.83981583E-4,.957E-5,0
LEMU NGE,2024-149BS,2026-07-18T04:10:32.827584,14.95067206,.00005356,97.6835,273.5076,98.3204,261.8077,0,U,60532,999,10458,.81962595E-4,.841E-5,0
LEMUR-2-STELLA,2024-149BT,2026-07-18T04:24:03.188736,15.12405631,.00012337,97.6730,281.7865,123.5601,236.5747,0,U,60533,999,10518,.35130774E-3,.6034E-4,0
SATELIOT_2,2024-149BU,2026-07-18T04:28:53.796000,14.96462567,.00013528,97.6818,273.5776,75.6167,284.5204,0,U,60534,999,10460,.35127279E-4,.342E-5,0
NIGHTJAR,2024-149BV,2026-07-18T03:55:15.607776,14.99183054,.00027651,97.6845,275.4362,90.3380,269.8160,0,U,60535,999,14751,.18902208E-3,.2242E-4,0
LEMUR-2-MARHISYAM,2024-149BW,2026-07-18T04:12:39.267936,15.11810361,.00022992,97.6873,282.2583,64.5787,295.5681,0,U,60536,999,10516,.32203811E-3,.5434E-4,0
SATELIOT_4,2024-149BX,2026-07-18T04:35:27.545856,14.96761742,.00008012,97.6725,273.0882,318.1511,41.9650,0,U,60537,999,10461,.42608068E-4,.43E-5,0
PICO-02A021,2024-149BY,2026-07-18T04:22:34.624416,15.03501390,.00038802,97.6732,277.7516,267.5116,92.5665,0,U,60538,999,10439,.17115334E-3,.2272E-4,0
ICEYE-X43,2024-149BZ,2026-07-18T04:29:32.878176,14.99790598,.00063917,97.6790,275.7361,334.2876,25.8028,0,U,60539,999,10476,.51418465E-4,.577E-5,0
HAWK-10A,2024-149CA,2026-07-18T04:38:24.098208,14.96594269,.00028044,97.6884,274.5721,350.8511,9.2659,0,U,60540,999,10462,.24222941E-4,.219E-5,0
UMBRA-09,2024-149CB,2026-07-18T04:05:26.633760,15.18902208,.00021069,97.6969,286.9257,193.6382,166.4795,0,U,60541,999,10542,.39475455E-3,.8169E-4,0
QPS-SAR-8 (AMATERU-IV),2024-149CC,2026-07-18T04:35:24.236736,15.04406826,.00033084,97.6648,278.0857,33.6506,326.4930,0,U,60542,999,10493,.13056662E-3,.1762E-4,0
ARCTIC WEATHER SATELLITE,2024-149CD,2026-07-18T04:24:29.138112,14.89806232,.00027128,97.6789,268.7611,44.4062,315.7374,0,U,60543,999,10391,.38444105E-4,.315E-5,0
CAPELLA-15 (ACADIA-5),2024-149CE,2026-07-18T03:56:50.382528,14.92395441,.00031339,97.6761,271.2911,327.9536,32.1492,0,U,60544,999,10447,.17524749E-3,.1739E-4,0
HAWK-10B,2024-149CF,2026-07-18T04:38:12.448032,14.96593274,.0005104,97.6802,273.8955,3.5893,356.5364,0,U,60545,999,10462,.29196781E-4,.275E-5,0
ICEYE-X39,2024-149CG,2026-07-18T03:54:57.026592,15.00086374,.00068822,97.6795,275.7706,38.4282,321.7430,0,U,60546,999,10476,.18172891E-3,.2206E-4,0
