FLOCK 4BE-9             
1 60514U 24149AY  26199.18902998  .00012582  00000+0  30020-3 0  9994
2 60514  97.3784 283.7797 0003941 162.4982 197.6402 15.41680268107095
FLOCK 4BE-6             
1 60516U 24149BA  26199.17807867  .00008022  00000+0  20070-3 0  9992
2 60516  97.3782 283.0666 0004594 164.3162 195.8227 15.40367618107049
FLOCK 4BE-14            
1 60517U 24149BB  26199.13202246  .00009602  00000+0  22782-3 0  9996
2 60517  97.3687 283.1867 0005606 167.3280 192.8109 15.41913504107090
FLOCK 4BE-1             
1 60518U 24149BC  26199.18006033  .00010017  00000+0  22478-3 0  9992
2 60518  97.3771 284.6255 0005289 166.5273 193.6117 15.43576103107159
FLOCK 4BE-28            
1 60519U 24149BD  26199.14499509  .00026086  00000+0  52715-3 0  9993
2 60519  97.3739 285.4169 0005419 167.0879 193.0510 15.46448306107225
IPERDRONE.0             
1 60520U 24149BE  26198.79111677  .00060022  00000+0  47053-3 0  9999
2 60520  97.3766 293.6222 0003930 161.8445 198.2959 15.71386008107711
TRANSPORTER-11 OBJECT BF
1 60521U 24149BF  26198.97089185  .01386109  24074-5  90066-3 0  9991
2 60521  97.3781 297.8615 0011533 254.3483 105.6532 16.17178955107999
CONNECTA IOT-2          
1 60522U 24149BG  26199.16904484  .00002264  00000+0  95793-4 0  9998
2 60522  97.3830 276.8484 0005832 201.0612 159.0386 15.24208554106618
CONNECTA IOT-4          
1 60524U 24149BJ  26198.95236188  .00011543  00000+0  26160-3 0  9996
2 60524  97.3790 283.7098 0006219 166.1070 194.0350 15.43236121107075
ORESAT0.5               
1 60525U 24149BK  26199.19324216  .00011885  00000+0  24376-3 0  9990
2 60525  97.3718 285.6926 0006416 155.0031 205.1530 15.46181292107266
DEIMOS                  
1 60526U 24149BL  26199.17851571  .00010891  00000+0  23068-3 0  9991
2 60526  97.3775 285.8010 0006290 160.5107 199.6384 15.45261274107230
CUAVA-2                 
1 60527U 24149BM  26199.14859966  .00006536  00000+0  18406-3 0  9996
2 60527  97.3715 280.7336 0007222 169.5748 190.5647 15.36775184106923
ERNST                   
1 60528U 24149BN  26199.17202167  .00007407  00000+0  18805-3 0  9996
2 60528  97.3799 283.1402 0006468 169.2987 190.8398 15.39940943107040
TORO                    
1 60530U 24149BQ  26199.13146222  .00000674  00000+0  64306-4 0  9991
2 60530  97.6771 273.2216 0001180 106.7423 253.3928 14.96520389104586
HYPSO-2                 
1 60531U 24149BR  26199.17669450  .00000957  00000+0  83982-4 0  9994
2 60531  97.6837 274.9881 0001620  96.4475 263.6932 14.98941565104693
LEMU NGE                
1 60532U 24149BS  26199.17399106  .00000841  00000+0  81963-4 0  9992
2 60532  97.6835 273.5076 0000535  98.3204 261.8077 14.95067206104584
LEMUR-2-STELLA          
1 60533U 24149BT  26199.18337024  .00006034  00000+0  35131-3 0  9990
2 60533  97.6730 281.7865 0001233 123.5601 236.5747 15.12405631105182
SATELIOT_2              
1 60534U 24149BU  26199.18673375  .00000342  00000+0  35127-4 0  9995
2 60534  97.6818 273.5776 0001352  75.6167 284.5204 14.96462567104605
NIGHTJAR                
1 60535U 24149BV  26199.16337509  .00002242  00000+0  18902-3 0  9992
2 60535  97.6845 275.4362 0002765  90.3380 269.8160 14.99183054147516
LEMUR-2-MARHISYAM       
1 60536U 24149BW  26199.17545449  .00005434  00000+0  32204-3 0  9995
2 60536  97.6873 282.2583 0002299  64.5787 295.5681 15.11810361105167
SATELIOT_4              
1 60537U 24149BX  26199.19129104  .00000430  00000+0  42608-4 0  9995
2 60537  97.6725 273.0882 0000801 318.1511  41.9650 14.96761742104612
PICO-02A021             
1 60538U 24149BY  26199.18234519  .00002272  00000+0  17115-3 0  9992
2 60538  97.6732 277.7516 0003880 267.5116  92.5665 15.03501390104397
ICEYE-X43               
1 60539U 24149BZ  26199.18718609  .00000577  00000+0  51418-4 0  9991
2 60539  97.6790 275.7361 0006391 334.2876  25.8028 14.99790598104760
HAWK-10A                
1 60540U 24149CA  26199.19333447  .00000219  00000+0  24223-4 0  9994
2 60540  97.6884 274.5721 0002804 350.8511   9.2659 14.96594269104623
UMBRA-09                
1 60541U 24149CB  26199.17044715  .00008169  00000+0  39475-3 0  9996
2 60541  97.6969 286.9257 0002106 193.6382 166.4795 15.18902208105420
QPS-SAR-8 (AMATERU-IV)  
1 60542U 24149CC  26199.19125274  .00001762  00000+0  13057-3 0  9999
2 60542  97.6648 278.0857 0003308  33.6506 326.4930 15.04406826104933
ARCTIC WEATHER SATELLITE
1 60543U 24149CD  26199.18367058  .00000315  00000+0  38444-4 0  9998
2 60543  97.6789 268.7611 0002712  44.4062 315.7374 14.89806232103916
CAPELLA-15 (ACADIA-5)   
1 60544U 24149CE  26199.16447202  .00001739  00000+0  17525-3 0  9994
2 60544  97.6761 271.2911 0003133 327.9536  32.1492 14.92395441104474
HAWK-10B                
1 60545U 24149CF  26199.19319963  .00000275  00000+0  29197-4 0  9993
2 60545  97.6802 273.8955 0005104   3.5893 356.5364 14.96593274104626
ICEYE-X39               
1 60546U 24149CG  26199.16316003  .00002206  00000+0  18173-3 0  9990
2 60546  97.6795 275.7706 0006882  38.4282 321.7430 15.00086374104763
